NORAD_CAT_ID,OBJECT_NAME,OBJECT_TYPE,EPOCH,MEAN_MOTION,ECCENTRICITY,INCLINATION,RA_OF_ASC_NODE,ARG_OF_PERICENTER,MEAN_ANOMALY,BSTAR,MEAN_MOTION_DOT,MEAN_MOTION_DDOT,TLE_LINE0,TLE_LINE1,TLE_LINE2,SEMIMAJOR_AXIS,PERIOD,APOGEE,PERIGEE,DECAYED
53978.0,STARLINK-5148,PAYLOAD,2023-05-11 22:32:15,15.0883849,0.0001369,53.2147,175.2044,111.3037,248.8101,9.3722e-05,1.204e-05,0.0,0 STARLINK-5148,1 53978U 22125Q   23131.93907083  .00001204  00000-0  93722-4 0  9997,2 53978  53.2147 175.2044 0001369 111.3037 248.8101 15.08838490 33550,6917.885,95.438,540.697,538.803,0.0
53978.0,STARLINK-5148,PAYLOAD,2023-05-12 08:04:34,15.08833172,0.0001362,53.2155,173.4195,115.8793,244.234,4.0574e-05,3.58e-06,0.0,0 STARLINK-5148,1 53978U 22125Q   23132.33651601  .00000358  00000-0  40574-4 0  9990,2 53978  53.2155 173.4195 0001362 115.8793 244.2340 15.08833172 33611,6917.901,95.438,540.708,538.824,0.0
53978.0,STARLINK-5148,PAYLOAD,2023-05-12 19:12:16,15.0883915,0.0001269,53.216,171.3408,108.8595,251.2535,5.1506e-05,5.32e-06,0.0,0 STARLINK-5148,1 53978U 22125Q   23132.80019328  .00000532  00000-0  51506-4 0  9997,2 53978  53.2160 171.3408 0001269 108.8595 251.2535 15.08839150 33615,6917.883,95.438,540.626,538.87,0.0
53978.0,STARLINK-5148,PAYLOAD,2023-05-13 11:06:07,15.08841297,0.0001162,53.2158,168.3666,101.551,258.5612,9.2135e-05,1.179e-05,0.0,0 STARLINK-5148,1 53978U 22125Q   23133.46259088  .00001179  00000-0  92135-4 0  9990,2 53978  53.2158 168.3666 0001162 101.5510 258.5612 15.08841297 33782,6917.876,95.437,540.545,538.938,0.0
53978.0,STARLINK-5148,PAYLOAD,2023-05-13 19:03:03,15.08832929,0.0001168,53.2157,166.8797,98.9529,261.1596,0.00010575,1.395e-05,0.0,0 STARLINK-5148,1 53978U 22125Q   23133.79379602  .00001395  00000-0  10575-3 0  9998,2 53978  53.2157 166.8797 0001168  98.9529 261.1596 15.08832929 33833,6917.902,95.438,540.575,538.959,0.0
53978.0,STARLINK-5148,PAYLOAD,2023-05-14 10:56:55,15.08835539,0.0001193,53.2159,163.9062,95.2973,264.8156,6.7761e-05,7.91e-06,0.0,0 STARLINK-5148,1 53978U 22125Q   23134.45619899  .00000791  00000-0  67761-4 0  9996,2 53978  53.2159 163.9062 0001193  95.2973 264.8156 15.08835539 33864,6917.894,95.438,540.584,538.934,0.0
53978.0,STARLINK-5148,PAYLOAD,2023-05-14 23:40:00,15.08838535,0.0001231,53.2158,161.5275,95.3187,264.7945,3.9325e-05,3.38e-06,0.0,0 STARLINK-5148,1 53978U 22125Q   23134.98611888  .00000338  00000-0  39325-4 0  9996,2 53978  53.2158 161.5275 0001231  95.3187 264.7945 15.08838535 34016,6917.885,95.438,540.601,538.898,0.0
53978.0,STARLINK-5148,PAYLOAD,2023-05-15 10:47:42,15.08839545,0.0001232,53.2158,159.4449,88.1945,271.9188,4.798e-05,4.76e-06,0.0,0 STARLINK-5148,1 53978U 22125Q   23135.44979844  .00000476  00000-0  47980-4 0  9996,2 53978  53.2158 159.4449 0001232  88.1945 271.9188 15.08839545 34019,6917.882,95.438,540.599,538.894,0.0
53978.0,STARLINK-5148,PAYLOAD,2023-05-15 18:44:38,15.08840058,0.000124,53.2157,157.9583,89.0167,271.0967,5.3092e-05,5.57e-06,0.0,0 STARLINK-5148,1 53978U 22125Q   23135.78099805  .00000557  00000-0  53092-4 0  9994,2 53978  53.2157 157.9583 0001240  89.0167 271.0967 15.08840058 34067,6917.88,95.438,540.603,538.887,0.0
53978.0,STARLINK-5148,PAYLOAD,2023-05-16 09:03:06,15.08840313,0.0001191,53.2158,155.2817,89.9631,270.1497,8.6803e-05,1.094e-05,0.0,0 STARLINK-5148,1 53978U 22125Q   23136.37715789  .00001094  00000-0  86803-4 0  9999,2 53978  53.2158 155.2817 0001191  89.9631 270.1497 15.08840313 34229,6917.879,95.438,540.568,538.921,0.0
53978.0,STARLINK-5148,PAYLOAD,2023-05-17 07:18:30,15.08841968,0.0001209,53.2159,151.1186,88.9018,271.2113,6.8591e-05,8.04e-06,0.0,0 STARLINK-5148,1 53978U 22125Q   23137.30451648  .00000804  00000-0  68591-4 0  9996,2 53978  53.2159 151.1186 0001209  88.9018 271.2113 15.08841968 34293,6917.874,95.437,540.576,538.903,0.0
53978.0,STARLINK-5148,PAYLOAD,2023-05-17 23:12:21,15.08840764,0.0001221,53.2161,148.1457,87.0061,273.1071,4.3919e-05,4.11e-06,0.0,0 STARLINK-5148,1 53978U 22125Q   23137.96691731  .00000411  00000-0  43919-4 0  9998,2 53978  53.2161 148.1457 0001221  87.0061 273.1071 15.08840764 34461,6917.878,95.438,540.588,538.898,0.0
53978.0,STARLINK-5148,PAYLOAD,2023-05-18 07:09:17,15.08840852,0.000122,53.2162,146.6589,89.417,270.6962,2.9995e-05,1.9e-06,0.0,0 STARLINK-5148,1 53978U 22125Q   23138.29811695  .00000190  00000-0  29995-4 0  9990,2 53978  53.2162 146.6589 0001220  89.4170 270.6962 15.08840852 34444,6917.878,95.438,540.587,538.899,0.0
53978.0,STARLINK-5148,PAYLOAD,2023-05-19 00:38:31,15.08839078,0.000122,53.216,143.3878,89.1216,270.9915,2.5303e-05,1.15e-06,0.0,0 STARLINK-5148,1 53978U 22125Q   23139.02675775  .00000115  00000-0  25303-4 0  9995,2 53978  53.2160 143.3878 0001220  89.1216 270.9915 15.08839078 34624,6917.883,95.438,540.592,538.904,0.0
53978.0,STARLINK-5148,PAYLOAD,2023-05-19 07:00:04,15.08839827,0.0001207,53.2161,142.1982,88.968,271.145,2.7616e-05,1.52e-06,0.0,0 STARLINK-5148,1 53978U 22125Q   23139.29171733  .00000152  00000-0  27616-4 0  9999,2 53978  53.2161 142.1982 0001207  88.9680 271.1450 15.08839827 34590,6917.881,95.438,540.581,538.911,0.0
53978.0,STARLINK-5148,PAYLOAD,2023-05-20 06:50:51,15.08839791,0.0001219,53.216,137.738,88.6628,271.4503,4.8991e-05,4.92e-06,0.0,0 STARLINK-5148,1 53978U 22125Q   23140.28531801  .00000492  00000-0  48991-4 0  9992,2 53978  53.2160 137.7380 0001219  88.6628 271.4503 15.08839791 34810,6917.881,95.438,540.589,538.903,0.0
53978.0,STARLINK-5148,PAYLOAD,2023-05-20 16:23:10,15.08839749,0.0001219,53.216,135.9539,88.072,272.0411,5.1014e-05,5.24e-06,0.0,0 STARLINK-5148,1 53978U 22125Q   23140.68275820  .00000524  00000-0  51014-4 0  9998,2 53978  53.2160 135.9539 0001219  88.0720 272.0411 15.08839749 34800,6917.881,95.438,540.589,538.903,0.0
53978.0,STARLINK-5148,PAYLOAD,2023-05-21 06:41:38,15.08841719,0.0001223,53.2161,133.2778,88.7769,271.3364,7.3412e-05,8.81e-06,0.0,0 STARLINK-5148,1 53978U 22125Q   23141.27891661  .00000881  00000-0  73412-4 0  9993,2 53978  53.2161 133.2778 0001223  88.7769 271.3364 15.08841719 34890,6917.875,95.437,540.586,538.894,0.0
53978.0,STARLINK-5148,PAYLOAD,2023-05-21 16:13:57,15.08837208,0.0001213,53.216,131.494,88.852,271.2611,3.4953e-05,2.68e-06,0.0,0 STARLINK-5148,1 53978U 22125Q   23141.67636089  .00000268  00000-0  34953-4 0  9994,2 53978  53.2160 131.4940 0001213  88.8520 271.2611 15.08837208 35023,6917.889,95.438,540.593,538.915,0.0
53978.0,STARLINK-5148,PAYLOAD,2023-05-22 08:07:49,15.08830679,0.0001281,53.216,128.5208,93.44,266.6739,-2.1218e-05,-6.25e-06,0.0,0 STARLINK-5148,1 53978U 22125Q   23142.33877031 -.00000625  00000-0 -21218-4 0  9991,2 53978  53.2160 128.5208 0001281  93.4400 266.6739 15.08830679 35126,6917.909,95.438,540.66,538.888,0.0
53978.0,STARLINK-5148,PAYLOAD,2023-05-22 16:04:45,15.08834372,0.0001284,53.2163,127.0334,87.0795,273.0344,1.1177e-05,-1.1e-06,0.0,0 STARLINK-5148,1 53978U 22125Q   23142.66996867 -.00000110  00000-0  11177-4 0  9997,2 53978  53.2163 127.0334 0001284  87.0795 273.0344 15.08834372 35108,6917.898,95.438,540.651,538.874,0.0
53978.0,STARLINK-5148,PAYLOAD,2023-05-23 07:58:36,15.08841723,0.0001302,53.2164,124.0598,85.8947,274.2194,4.8029e-05,4.77e-06,0.0,0 STARLINK-5148,1 53978U 22125Q   23143.33236447  .00000477  00000-0  48029-4 0  9994,2 53978  53.2164 124.0598 0001302  85.8947 274.2194 15.08841723 35276,6917.875,95.437,540.641,538.839,0.0
53978.0,STARLINK-5148,PAYLOAD,2023-05-23 15:55:32,15.08840296,0.0001393,53.2172,122.5727,84.092,276.0231,6.9347e-05,8.16e-06,0.0,0 STARLINK-5148,1 53978U 22125Q   23143.66356512  .00000816  00000-0  69347-4 0  9999,2 53978  53.2172 122.5727 0001393  84.0920 276.0231 15.08840296 35258,6917.879,95.438,540.708,538.781,0.0
53978.0,STARLINK-5148,PAYLOAD,2023-05-24 07:49:22,15.08844603,0.0001269,53.2164,119.5983,84.8309,275.2828,0.0001698,2.416e-05,0.0,0 STARLINK-5148,1 53978U 22125Q   23144.32595982  .00002416  00000-0  16980-3 0  9991,2 53978  53.2164 119.5983 0001269  84.8309 275.2828 15.08844603 35350,6917.866,95.437,540.609,538.853,0.0
53978.0,STARLINK-5148,PAYLOAD,2023-05-26 04:20:11,15.08841206,0.0001451,53.2175,111.2679,105.1639,254.9513,-3.7693e-06,-3.48e-06,0.0,0 STARLINK-5148,1 53978U 22125Q   23146.18068405 -.00000348  00000-0 -37693-5 0  9992,2 53978  53.2175 111.2679 0001451 105.1639 254.9513 15.08841206 35709,6917.877,95.437,540.745,538.738,0.0
53978.0,STARLINK-5148,PAYLOAD,2023-05-27 02:35:35,15.08832139,0.0001372,53.2171,107.1064,101.2642,258.8504,-1.5233e-05,-5.3e-06,0.0,0 STARLINK-5148,1 53978U 22125Q   23147.10805216 -.00000530  00000-0 -15233-4 0  9992,2 53978  53.2171 107.1064 0001372 101.2642 258.8504 15.08832139 35843,6917.904,95.438,540.719,538.82,0.0
53978.0,STARLINK-5148,PAYLOAD,2023-05-27 13:43:17,15.08835847,0.000126,53.2166,105.0279,88.1444,271.9692,-8.0773e-06,-4.16e-06,0.0,0 STARLINK-5148,1 53978U 22125Q   23147.57173184 -.00000416  00000-0 -80773-5 0  9990,2 53978  53.2166 105.0279 0001260  88.1444 271.9692 15.08835847 35844,6917.893,95.438,540.63,538.886,0.0
53978.0,STARLINK-5148,PAYLOAD,2023-05-28 02:26:22,15.0884004,0.0001208,53.2168,102.6478,83.2643,276.8486,7.1817e-05,8.55e-06,0.0,0 STARLINK-5148,1 53978U 22125Q   23148.10164756  .00000855  00000-0  71817-4 0  9998,2 53978  53.2168 102.6478 0001208  83.2643 276.8486 15.08840040 35991,6917.88,95.438,540.581,538.91,0.0
53978.0,STARLINK-5148,PAYLOAD,2023-05-28 04:01:45,15.08842548,0.0001195,53.2165,102.3517,86.1792,273.9337,9.1762e-05,1.173e-05,0.0,0 STARLINK-5148,1 53978U 22125Q   23148.16788558  .00001173  00000-0  91762-4 0  9991,2 53978  53.2165 102.3517 0001195  86.1792 273.9337 15.08842548 35933,6917.873,95.437,540.564,538.911,0.0
53978.0,STARLINK-5148,PAYLOAD,2023-05-29 02:17:09,15.08835912,0.0001152,53.2167,98.1889,85.5134,274.5989,5.609e-05,6.05e-06,0.0,0 STARLINK-5148,1 53978U 22125Q   23149.09525254  .00000605  00000-0  56090-4 0  9990,2 53978  53.2167  98.1889 0001152  85.5134 274.5989 15.08835912 36146,6917.893,95.438,540.555,538.961,0.0
